NORAD_CAT_ID,OBJECT_NAME,OBJECT_TYPE,EPOCH,MEAN_MOTION,ECCENTRICITY,INCLINATION,RA_OF_ASC_NODE,ARG_OF_PERICENTER,MEAN_ANOMALY,BSTAR,MEAN_MOTION_DOT,MEAN_MOTION_DDOT,TLE_LINE0,TLE_LINE1,TLE_LINE2,SEMIMAJOR_AXIS,PERIOD,APOGEE,PERIGEE,DECAYED
49132.0,STARLINK-3090,PAYLOAD,2023-02-05 14:47:45,14.98328839,0.0002864,69.9999,258.7275,268.2058,91.8773,6.7698e-05,7.15e-06,0.0,0 STARLINK-3090,1 49132U 21082C   23036.61650225  .00000715  00000-0  67698-4 0  9996,2 49132  69.9999 258.7275 0002864 268.2058  91.8773 14.98328839 77003,6950.196,96.107,574.052,570.071,0.0
49132.0,STARLINK-3090,PAYLOAD,2023-02-05 21:12:18,14.98328119,0.0002888,69.9998,258.0543,268.4951,91.5877,5.2561e-05,5.34e-06,0.0,0 STARLINK-3090,1 49132U 21082C   23036.88354324  .00000534  00000-0  52561-4 0  9998,2 49132  69.9998 258.0543 0002888 268.4951  91.5877 14.98328119 77040,6950.199,96.107,574.071,570.056,0.0
49132.0,STARLINK-3090,PAYLOAD,2023-02-06 00:24:34,14.98329604,0.0002953,69.9996,257.7177,269.655,90.4271,6.1947e-05,6.46e-06,0.0,0 STARLINK-3090,1 49132U 21082C   23037.01706212  .00000646  00000-0  61947-4 0  9993,2 49132  69.9996 257.7177 0002953 269.6550  90.4271 14.98329604 77066,6950.194,96.107,574.112,570.007,0.0
49132.0,STARLINK-3090,PAYLOAD,2023-02-06 21:14:18,14.98336252,0.0002928,69.9995,255.5297,269.801,90.2814,9.0553e-05,9.88e-06,0.0,0 STARLINK-3090,1 49132U 21082C   23037.88493741  .00000988  00000-0  90553-4 0  9992,2 49132  69.9995 255.5297 0002928 269.8010  90.2814 14.98336252 77191,6950.174,96.107,574.074,570.004,0.0
49132.0,STARLINK-3090,PAYLOAD,2023-02-07 00:26:34,14.98338049,0.0002936,69.9994,255.1928,270.1599,89.9224,0.00010709,1.185e-05,0.0,0 STARLINK-3090,1 49132U 21082C   23038.01845550  .00001185  00000-0  10709-3 0  9991,2 49132  69.9994 255.1928 0002936 270.1599  89.9224 14.98338049 77212,6950.168,96.106,574.074,569.992,0.0
49132.0,STARLINK-3090,PAYLOAD,2023-02-07 21:16:19,14.9833587,0.0002888,69.9995,253.0042,271.747,88.3359,0.00012662,1.418e-05,0.0,0 STARLINK-3090,1 49132U 21082C   23038.88633561  .00001418  00000-0  12662-3 0  9992,2 49132  69.9995 253.0042 0002888 271.7470  88.3359 14.98335870 77343,6950.175,96.107,574.047,570.033,0.0
49132.0,STARLINK-3090,PAYLOAD,2023-02-07 22:52:27,14.98335828,0.0002895,69.9994,252.836,271.6948,88.388,0.00012372,1.384e-05,0.0,0 STARLINK-3090,1 49132U 21082C   23038.95309557  .00001384  00000-0  12372-3 0  9995,2 49132  69.9994 252.8360 0002895 271.6948  88.3880 14.98335828 77352,6950.175,96.107,574.052,570.028,0.0
49132.0,STARLINK-3090,PAYLOAD,2023-02-08 14:53:48,14.98331371,0.0002776,69.9994,251.1528,271.6348,88.4493,9.5438e-06,2.1e-07,0.0,0 STARLINK-3090,1 49132U 21082C   23039.62070042  .00000021  00000-0  95438-5 0  9997,2 49132  69.9994 251.1528 0002776 271.6348  88.4493 14.98331371 77453,6950.189,96.107,573.983,570.124,0.0
49132.0,STARLINK-3090,PAYLOAD,2023-02-08 21:18:20,14.98330281,0.000289,69.999,250.4791,272.6717,87.4111,-1.4479e-05,-2.66e-06,0.0,0 STARLINK-3090,1 49132U 21082C   23039.88774122 -.00000266  00000-0 -14479-4 0  9993,2 49132  69.9990 250.4791 0002890 272.6717  87.4111 14.98330281 77490,6950.192,96.107,574.066,570.048,0.0
49132.0,STARLINK-3090,PAYLOAD,2023-02-09 00:30:36,14.9833118,0.0002782,69.9995,250.1429,271.8287,88.2553,-3.7992e-06,-1.38e-06,0.0,0 STARLINK-3090,1 49132U 21082C   23040.02126012 -.00000138  00000-0 -37992-5 0  9994,2 49132  69.9995 250.1429 0002782 271.8287  88.2553 14.98331180 77514,6950.189,96.107,573.988,570.121,0.0
49132.0,STARLINK-3090,PAYLOAD,2023-02-09 19:44:13,14.98333502,0.0002942,69.9988,248.1225,270.9587,89.1235,2.2004e-05,1.7e-06,0.0,0 STARLINK-3090,1 49132U 21082C   23040.82237733  .00000170  00000-0  22004-4 0  9996,2 49132  69.9988 248.1225 0002942 270.9587  89.1235 14.98333502 77638,6950.182,96.107,574.092,570.002,0.0
49132.0,STARLINK-3090,PAYLOAD,2023-02-09 21:20:21,14.98332675,0.0003131,69.9985,247.9538,272.8313,87.2488,5.5342e-05,5.67e-06,0.0,0 STARLINK-3090,1 49132U 21082C   23040.88913730  .00000567  00000-0  55342-4 0  9991,2 49132  69.9985 247.9538 0003131 272.8313  87.2488 14.98332675 77648,6950.185,96.107,574.226,569.874,0.0
49132.0,STARLINK-3090,PAYLOAD,2023-02-10 19:46:14,14.98328242,0.0002992,69.9989,245.5963,269.7743,90.3073,9.5308e-05,1.044e-05,0.0,0 STARLINK-3090,1 49132U 21082C   23041.82377952  .00001044  00000-0  95308-4 0  9993,2 49132  69.9989 245.5963 0002992 269.7743  90.3073 14.98328242 77789,6950.198,96.107,574.143,569.984,0.0
49132.0,STARLINK-3090,PAYLOAD,2023-02-10 22:58:30,14.98331995,0.0003036,69.9988,245.26,269.8352,90.2459,9.8178e-05,1.079e-05,0.0,0 STARLINK-3090,1 49132U 21082C   23041.95729715  .00001079  00000-0  98178-4 0  9991,2 49132  69.9988 245.2600 0003036 269.8352  90.2459 14.98331995 77809,6950.187,96.107,574.162,569.942,0.0
49132.0,STARLINK-3090,PAYLOAD,2023-02-11 19:48:15,14.98328716,0.000301,69.9986,243.0719,269.1255,90.9559,4.943e-05,4.97e-06,0.0,0 STARLINK-3090,1 49132U 21082C   23042.82518126  .00000497  00000-0  49430-4 0  9990,2 49132  69.9986 243.0719 0003010 269.1255  90.9559 14.98328716 77930,6950.197,96.107,574.154,569.97,0.0
49132.0,STARLINK-3090,PAYLOAD,2023-02-12 13:25:44,14.98332175,0.0003022,69.9993,241.2215,270.1233,89.9579,7.1654e-05,7.62e-06,0.0,0 STARLINK-3090,1 49132U 21082C   23043.55953938  .00000762  00000-0  71654-4 0  9993,2 49132  69.9993 241.2215 0003022 270.1233  89.9579 14.98332175 78047,6950.186,96.107,574.152,569.951,0.0
49132.0,STARLINK-3090,PAYLOAD,2023-02-12 19:50:16,14.98334017,0.000302,69.9993,240.5481,269.8158,90.2655,8.8297e-05,9.61e-06,0.0,0 STARLINK-3090,1 49132U 21082C   23043.82657756  .00000961  00000-0  88297-4 0  9994,2 49132  69.9993 240.5481 0003020 269.8158  90.2655 14.98334017 78084,6950.18,96.107,574.144,569.947,0.0
49132.0,STARLINK-3090,PAYLOAD,2023-02-13 11:51:36,14.98332427,0.0003009,69.9996,238.865,269.6326,90.4489,9.5283e-05,1.044e-05,0.0,0 STARLINK-3090,1 49132U 21082C   23044.49417802  .00001044  00000-0  95283-4 0  9990,2 49132  69.9996 238.8650 0003009 269.6326  90.4489 14.98332427 78188,6950.185,96.107,574.142,569.959,0.0
49132.0,STARLINK-3090,PAYLOAD,2023-02-13 19:52:17,14.98333658,0.0003014,69.9996,238.0233,269.5659,90.5154,0.00010075,1.109e-05,0.0,0 STARLINK-3090,1 49132U 21082C   23044.82797682  .00001109  00000-0  10075-3 0  9991,2 49132  69.9996 238.0233 0003014 269.5659  90.5154 14.98333658 78234,6950.182,96.107,574.141,569.952,0.0
49132.0,STARLINK-3090,PAYLOAD,2023-02-14 11:53:37,14.98333744,0.000296,69.9993,236.34,269.3142,90.7677,5.895e-05,6.11e-06,0.0,0 STARLINK-3090,1 49132U 21082C   23045.49557704  .00000611  00000-0  58950-4 0  9996,2 49132  69.9993 236.3400 0002960 269.3142  90.7677 14.98333744 78331,6950.181,96.107,574.104,569.989,0.0
49132.0,STARLINK-3090,PAYLOAD,2023-02-15 05:31:06,14.98333915,0.0002956,69.9997,234.4883,270.2272,89.8549,5.8311e-05,6.03e-06,0.0,0 STARLINK-3090,1 49132U 21082C   23046.22993552  .00000603  00000-0  58311-4 0  9995,2 49132  69.9997 234.4883 0002956 270.2272  89.8549 14.98333915 78448,6950.181,96.107,574.1,569.991,0.0
49132.0,STARLINK-3090,PAYLOAD,2023-02-15 13:31:46,14.98334415,0.0002966,69.9987,233.6464,269.6318,90.4501,5.7485e-05,5.93e-06,0.0,0 STARLINK-3090,1 49132U 21082C   23046.56373430  .00000593  00000-0  57485-4 0  9998,2 49132  69.9987 233.6464 0002966 269.6318  90.4501 14.98334415 78494,6950.179,96.107,574.106,569.983,0.0
49132.0,STARLINK-3090,PAYLOAD,2023-02-15 21:32:26,14.98335795,0.0003027,69.9974,232.8044,268.9979,91.0833,7.5183e-05,8.04e-06,0.0,0 STARLINK-3090,1 49132U 21082C   23046.89753230  .00000804  00000-0  75183-4 0  9994,2 49132  69.9974 232.8044 0003027 268.9979  91.0833 14.98335795 78542,6950.175,96.107,574.144,569.936,0.0
49132.0,STARLINK-3090,PAYLOAD,2023-02-16 05:33:07,14.98334422,0.0003029,69.9973,231.9627,269.3435,90.7376,5.9918e-05,6.22e-06,0.0,0 STARLINK-3090,1 49132U 21082C   23047.23133276  .00000622  00000-0  59918-4 0  9991,2 49132  69.9973 231.9627 0003029 269.3435  90.7376 14.98334422 78591,6950.179,96.107,574.149,569.939,0.0
49132.0,STARLINK-3090,PAYLOAD,2023-02-16 13:33:47,14.98333393,0.0003031,69.9968,231.1214,270.0289,90.0523,6.2123e-05,6.48e-06,0.0,0 STARLINK-3090,1 49132U 21082C   23047.56513282  .00000648  00000-0  62123-4 0  9996,2 49132  69.9968 231.1214 0003031 270.0289  90.0523 14.98333393 78647,6950.182,96.107,574.154,569.941,0.0
49132.0,STARLINK-3090,PAYLOAD,2023-02-16 21:34:27,14.98334995,0.0003157,69.9975,230.2794,270.0283,90.0514,6.9673e-05,7.38e-06,0.0,0 STARLINK-3090,1 49132U 21082C   23047.89893052  .00000738  00000-0  69673-4 0  9995,2 49132  69.9975 230.2794 0003157 270.0283  90.0514 14.98334995 78695,6950.177,96.107,574.237,569.848,0.0
49132.0,STARLINK-3090,PAYLOAD,2023-02-17 05:35:08,14.9833046,0.0003103,69.9977,229.4384,269.9078,90.1725,2.9309e-05,2.57e-06,0.0,0 STARLINK-3090,1 49132U 21082C   23048.23273388  .00000257  00000-0  29309-4 0  9996,2 49132  69.9977 229.4384 0003103 269.9078  90.1725 14.98330460 78746,6950.191,96.107,574.213,569.9,0.0
49132.0,STARLINK-3090,PAYLOAD,2023-02-17 20:00:20,14.98329851,0.0003297,69.9987,227.9232,271.2354,88.8427,-6.4335e-05,-8.61e-06,0.0,0 STARLINK-3090,1 49132U 21082C   23048.83357635 -.00000861  00000-0 -64335-4 0  9991,2 49132  69.9987 227.9232 0003297 271.2354  88.8427 14.98329851 78834,6950.193,96.107,574.35,569.767,0.0
49132.0,STARLINK-3090,PAYLOAD,2023-02-18 05:37:09,14.98333122,0.0003175,69.9989,226.9131,268.6218,91.4577,-4.9953e-05,-6.89e-06,0.0,0 STARLINK-3090,1 49132U 21082C   23049.23413398 -.00000689  00000-0 -49953-4 0  9992,2 49132  69.9989 226.9131 0003175 268.6218  91.4577 14.98333122 78895,6950.183,96.107,574.255,569.842,0.0
49132.0,STARLINK-3090,PAYLOAD,2023-02-18 10:25:33,14.98327027,0.0003256,69.999,226.408,268.3134,91.7652,5.7646e-05,5.95e-06,0.0,0 STARLINK-3090,1 49132U 21082C   23049.43441522  .00000595  00000-0  57646-4 0  9996,2 49132  69.9990 226.4080 0003256 268.3134  91.7652 14.98327027 78927,6950.202,96.107,574.33,569.804,0.0
